{"type": "FeatureCollection", "features": [ {"type": "Feature", "properties": {"norad_id": 66915, "name": "HULIANWANG DIGUI-105", "group": "last-30-days", "lat": 16.943640580428, "lon": -82.45186028144558, "alt_km": 882.7098643364352, "timestamp": "2025-12-13T22:39:28.446702+00:00", "meta": {"OBJECT_NAME": "HULIANWANG DIGUI-105", "OBJECT_ID": "2025-285A", "EPOCH": "2025-12-12T21:59:21.438240", "MEAN_MOTION": 14.03715291, "ECCENTRICITY": 0.0007944, "INCLINATION": 50.005, "RA_OF_ASC_NODE": 116.5531, "ARG_OF_PERICENTER": 283.5948, "MEAN_ANOMALY": 76.4071, "EPHEMERIS_TYPE": 0, "CLASSIFICATION_TYPE": "U", "NORAD_CAT_ID": 66915, "ELEMENT_SET_NO": 999, "REV_AT_EPOCH": 93, "BSTAR": 0.00019715928, "MEAN_MOTION_DOT": 1.61e-06, "MEAN_MOTION_DDOT": 0}, "tle": {"line1": "1 66915U 25285A   25346.91622035  .00000161  00000+0  19716-3 0  9991", "line2": "2 66915  50.0050 116.5531 0007944 283.5948  76.4071 14.03715291   934"}}, "geometry": {"type": "Point", "coordinates": [-82.45186028144558, 16.943640580428]}}, {"type": "Feature", "properties": {"norad_id": 66916, "name": "HULIANWANG DIGUI-106", "group": "last-30-days", "lat": 7.464861520691965, "lon": -73.96895053239592, "alt_km": 876.9162139610553, "timestamp": "2025-12-13T22:39:28.446712+00:00", "meta": {"OBJECT_NAME": "HULIANWANG DIGUI-106", "OBJECT_ID": "2025-285B", "EPOCH": "2025-12-13T08:11:47.825664", "MEAN_MOTION": 14.05208738, "ECCENTRICITY": 0.00066861, "INCLINATION": 50.0084, "RA_OF_ASC_NODE": 114.8057, "ARG_OF_PERICENTER": 277.4168, "MEAN_ANOMALY": 82.5977, "EPHEMERIS_TYPE": 0, "CLASSIFICATION_TYPE": "U", "NORAD_CAT_ID": 66916, "ELEMENT_SET_NO": 999, "REV_AT_EPOCH": 99, "BSTAR": 0.00018032653, "MEAN_MOTION_DOT": 1.41e-06, "MEAN_MOTION_DDOT": 0}, "tle": {"line1": "1 66916U 25285B   25347.34152576  .00000141  00000+0  18033-3 0  9997", "line2": "2 66916  50.0084 114.8057 0006686 277.4168  82.5977 14.05208738   998"}}, "geometry": {"type": "Point", "coordinates": [-73.96895053239592, 7.464861520691965]}}, {"type": "Feature", "properties": {"norad_id": 66917, "name": "HULIANWANG DIGUI-107", "group": "last-30-days", "lat": 5.459760271747422, "lon": -72.26735204379182, "alt_km": 876.7408568194869, "timestamp": "2025-12-13T22:39:28.446722+00:00", "meta": {"OBJECT_NAME": "HULIANWANG DIGUI-107", "OBJECT_ID": "2025-285C", "EPOCH": "2025-12-13T08:11:16.578240", "MEAN_MOTION": 14.05580636, "ECCENTRICITY": 0.00075413, "INCLINATION": 50.0017, "RA_OF_ASC_NODE": 114.7991, "ARG_OF_PERICENTER": 287.043, "MEAN_ANOMALY": 72.9649, "EPHEMERIS_TYPE": 0, "CLASSIFICATION_TYPE": "U", "NORAD_CAT_ID": 66917, "ELEMENT_SET_NO": 999, "REV_AT_EPOCH": 99, "BSTAR": 1.2937595e-05, "MEAN_MOTION_DOT": -1.31e-06, "MEAN_MOTION_DDOT": 0}, "tle": {"line1": "1 66917U 25285C   25347.34116410 -.00000131  00000+0  12938-4 0  9994", "line2": "2 66917  50.0017 114.7991 0007541 287.0430  72.9649 14.05580636   990"}}, "geometry": {"type": "Point", "coordinates": [-72.26735204379182, 5.459760271747422]}}, {"type": "Feature", "properties": {"norad_id": 66918, "name": "HULIANWANG DIGUI-108", "group": "last-30-days", "lat": 2.8857650412101576, "lon": -70.09350901952772, "alt_km": 875.7091425469825, "timestamp": "2025-12-13T22:39:28.446734+00:00", "meta": {"OBJECT_NAME": "HULIANWANG DIGUI-108", "OBJECT_ID": "2025-285D", "EPOCH": "2025-12-13T08:10:24.066912", "MEAN_MOTION": 14.05705678, "ECCENTRICITY": 0.00064788, "INCLINATION": 50.0037, "RA_OF_ASC_NODE": 114.7985, "ARG_OF_PERICENTER": 282.3057, "MEAN_ANOMALY": 77.7123, "EPHEMERIS_TYPE": 0, "CLASSIFICATION_TYPE": "U", "NORAD_CAT_ID": 66918, "ELEMENT_SET_NO": 999, "REV_AT_EPOCH": 99, "BSTAR": 0.00018112956, "MEAN_MOTION_DOT": 1.45e-06, "MEAN_MOTION_DDOT": 0}, "tle": {"line1": "1 66918U 25285D   25347.34055633  .00000145  00000+0  18113-3 0  9998", "line2": "2 66918  50.0037 114.7985 0006478 282.3057  77.7123 14.05705678   992"}}, "geometry": {"type": "Point", "coordinates": [-70.09350901952772, 2.8857650412101576]}}, {"type": "Feature", "properties": {"norad_id": 66919, "name": "HULIANWANG DIGUI-109", "group": "last-30-days", "lat": 2.5893830535873508, "lon": -69.84073992682261, "alt_km": 877.0147169484299, "timestamp": "2025-12-13T22:39:28.446744+00:00", "meta": {"OBJECT_NAME": "HULIANWANG DIGUI-109", "OBJECT_ID": "2025-285E", "EPOCH": "2025-12-13T08:10:17.549760", "MEAN_MOTION": 14.05716761, "ECCENTRICITY": 0.00078476, "INCLINATION": 50.0063, "RA_OF_ASC_NODE": 114.8017, "ARG_OF_PERICENTER": 293.6212, "MEAN_ANOMALY": 66.3869, "EPHEMERIS_TYPE": 0, "CLASSIFICATION_TYPE": "U", "NORAD_CAT_ID": 66919, "ELEMENT_SET_NO": 999, "REV_AT_EPOCH": 99, "BSTAR": 2.57074e-07, "MEAN_MOTION_DOT": -1.52e-06, "MEAN_MOTION_DDOT": 0}, "tle": {"line1": "1 66919U 25285E   25347.34048090 -.00000152  00000+0  25707-6 0  9997", "line2": "2 66919  50.0063 114.8017 0007847 293.6212  66.3869 14.05716761   994"}}, "geometry": {"type": "Point", "coordinates": [-69.84073992682261, 2.5893830535873508]}}, {"type": "Feature", "properties": {"norad_id": 66920, "name": "HULIANWANG DIGUI-110", "group": "last-30-days", "lat": -0.19096512132755908, "lon": -67.50736578031668, "alt_km": 875.7722456333922, "timestamp": "2025-12-13T22:39:28.446754+00:00", "meta": {"OBJECT_NAME": "HULIANWANG DIGUI-110", "OBJECT_ID": "2025-285F", "EPOCH": "2025-12-13T08:09:21.243744", "MEAN_MOTION": 14.05851591, "ECCENTRICITY": 0.00058407, "INCLINATION": 50.0096, "RA_OF_ASC_NODE": 114.8022, "ARG_OF_PERICENTER": 290.6406, "MEAN_ANOMALY": 69.3873, "EPHEMERIS_TYPE": 0, "CLASSIFICATION_TYPE": "U", "NORAD_CAT_ID": 66920, "ELEMENT_SET_NO": 999, "REV_AT_EPOCH": 99, "BSTAR": 0.00018252503, "MEAN_MOTION_DOT": 1.48e-06, "MEAN_MOTION_DDOT": 0}, "tle": {"line1": "1 66920U 25285F   25347.33982921  .00000148  00000+0  18253-3 0  9997", "line2": "2 66920  50.0096 114.8022 0005840 290.6406  69.3873 14.05851591   990"}}, "geometry": {"type": "Point", "coordinates": [-67.50736578031668, -0.19096512132755908]}}, {"type": "Feature", "properties": {"norad_id": 66921, "name": "HULIANWANG DIGUI-111", "group": "last-30-days", "lat": -0.8937588459051331, "lon": -66.91710006979314, "alt_km": 876.5004194005751, "timestamp": "2025-12-13T22:39:28.446766+00:00", "meta": {"OBJECT_NAME": "HULIANWANG DIGUI-111", "OBJECT_ID": "2025-285G", "EPOCH": "2025-12-13T08:09:06.540192", "MEAN_MOTION": 14.05885284, "ECCENTRICITY": 0.00069883, "INCLINATION": 50.011, "RA_OF_ASC_NODE": 114.8033, "ARG_OF_PERICENTER": 296.9935, "MEAN_ANOMALY": 63.0257, "EPHEMERIS_TYPE": 0, "CLASSIFICATION_TYPE": "U", "NORAD_CAT_ID": 66921, "ELEMENT_SET_NO": 999, "REV_AT_EPOCH": 99, "BSTAR": 0.00018661378, "MEAN_MOTION_DOT": 1.55e-06, "MEAN_MOTION_DDOT": 0}, "tle": {"line1": "1 66921U 25285G   25347.33965903  .00000155  00000+0  18661-3 0  9990", "line2": "2 66921  50.0110 114.8033 0006988 296.9935  63.0257 14.05885284   993"}}, "geometry": {"type": "Point", "coordinates": [-66.91710006979314, -0.8937588459051331]}}, {"type": "Feature", "properties": {"norad_id": 66922, "name": "HULIANWANG DIGUI-112", "group": "last-30-days", "lat": -3.289982636550564, "lon": -64.91249256354429, "alt_km": 876.6365068118048, "timestamp": "2025-12-13T22:39:28.446776+00:00", "meta": {"OBJECT_NAME": "HULIANWANG DIGUI-112", "OBJECT_ID": "2025-285H", "EPOCH": "2025-12-12T21:54:11.608704", "MEAN_MOTION": 14.06000264, "ECCENTRICITY": 0.00069381, "INCLINATION": 50.0083, "RA_OF_ASC_NODE": 116.539, "ARG_OF_PERICENTER": 301.8744, "MEAN_ANOMALY": 58.1486, "EPHEMERIS_TYPE": 0, "CLASSIFICATION_TYPE": "U", "NORAD_CAT_ID": 66922, "ELEMENT_SET_NO": 999, "REV_AT_EPOCH": 93, "BSTAR": 2.241994e-06, "MEAN_MOTION_DOT": -1.49e-06, "MEAN_MOTION_DDOT": 0}, "tle": {"line1": "1 66922U 25285H   25346.91263436 -.00000149  00000+0  22420-5 0  9990", "line2": "2 66922  50.0083 116.5390 0006938 301.8744  58.1486 14.06000264   938"}}, "geometry": {"type": "Point", "coordinates": [-64.91249256354429, -3.289982636550564]}}, {"type": "Feature", "properties": {"norad_id": 66923, "name": "HULIANWANG DIGUI-113", "group": "last-30-days", "lat": -4.516616961282926, "lon": -63.87762249764822, "alt_km": 875.6148248582895, "timestamp": "2025-12-13T22:39:28.446786+00:00", "meta": {"OBJECT_NAME": "HULIANWANG DIGUI-113", "OBJECT_ID": "2025-285J", "EPOCH": "2025-12-13T08:07:52.701024", "MEAN_MOTION": 14.06056837, "ECCENTRICITY": 0.00054099, "INCLINATION": 50.0082, "RA_OF_ASC_NODE": 114.7955, "ARG_OF_PERICENTER": 298.2432, "MEAN_ANOMALY": 61.7927, "EPHEMERIS_TYPE": 0, "CLASSIFICATION_TYPE": "U", "NORAD_CAT_ID": 66923, "ELEMENT_SET_NO": 999, "REV_AT_EPOCH": 99, "BSTAR": 0.00018934042, "MEAN_MOTION_DOT": 1.6e-06, "MEAN_MOTION_DDOT": 0}, "tle": {"line1": "1 66923U 25285J   25347.33880441  .00000160  00000+0  18934-3 0  9994", "line2": "2 66923  50.0082 114.7955 0005409 298.2432  61.7927 14.06056837   993"}}, "geometry": {"type": "Point", "coordinates": [-63.87762249764822, -4.516616961282926]}}, {"type": "Feature", "properties": {"norad_id": 66924, "name": "CZ-8A R/B", "group": "last-30-days", "lat": 34.232955717781756, "lon": -103.80681490841849, "alt_km": 705.7987882260595, "timestamp": "2025-12-13T22:39:28.446796+00:00", "meta": {"OBJECT_NAME": "CZ-8A R/B", "OBJECT_ID": "2025-285K", "EPOCH": "2025-12-13T01:55:47.341056", "MEAN_MOTION": 14.30502104, "ECCENTRICITY": 0.01193229, "INCLINATION": 50.0065, "RA_OF_ASC_NODE": 114.7043, "ARG_OF_PERICENTER": 107.9377, "MEAN_ANOMALY": 253.4589, "EPHEMERIS_TYPE": 0, "CLASSIFICATION_TYPE": "U", "NORAD_CAT_ID": 66924, "ELEMENT_SET_NO": 999, "REV_AT_EPOCH": 97, "BSTAR": 9.237633e-05, "MEAN_MOTION_DOT": 9.5e-07, "MEAN_MOTION_DDOT": 0}, "tle": {"line1": "1 66924U 25285K   25347.08040904  .00000095  00000+0  92376-4 0  9999", "line2": "2 66924  50.0065 114.7043 0119322 107.9377 253.4589 14.30502104   979"}}, "geometry": {"type": "Point", "coordinates": [-103.80681490841849, 34.232955717781756]}}]}